NORAD_CAT_ID,OBJECT_NAME,OBJECT_TYPE,EPOCH,MEAN_MOTION,ECCENTRICITY,INCLINATION,RA_OF_ASC_NODE,ARG_OF_PERICENTER,MEAN_ANOMALY,BSTAR,MEAN_MOTION_DOT,MEAN_MOTION_DDOT,TLE_LINE0,TLE_LINE1,TLE_LINE2,SEMIMAJOR_AXIS,PERIOD,APOGEE,PERIGEE,DECAYED
52359.0,STARLINK-3853,PAYLOAD,2022-07-25 14:00:01,15.08855171,0.0001906999999999,53.2192,18.761,57.9426,218.7634,-0.0010283,-0.00016623,0.0,0 STARLINK-3853,1 52359U 22045AE  22206.58334491 -.00016623  00000-0 -10283-2 0  9992,2 52359  53.2192  18.7610 0001907  57.9426 218.7634 15.08855171  1307,6917.834,95.437,541.018,538.38,0.0
52359.0,STARLINK-3853,PAYLOAD,2022-07-25 22:00:00,15.08823143,0.0002041999999999,53.219,17.266,51.75,236.5665,0.0029968,0.00047708,0.0,0 STARLINK-3853,1 52359U 22045AE  22206.91667824  .00047708  00000-0  29968-2 0  9994,2 52359  53.2190  17.2660 0002042  51.7500 236.5665 15.08823143  1306,6917.932,95.439,541.21,538.384,0.0
52359.0,STARLINK-3853,PAYLOAD,2022-07-26 14:00:01,15.08850844,0.0001891,53.2192,14.2719,56.2567,255.2589,-0.0021175,-0.00033841,0.0,0 STARLINK-3853,1 52359U 22045AE  22207.58334491 -.00033841  00000-0 -21175-2 0  9996,2 52359  53.2192  14.2719 0001891  56.2567 255.2589 15.08850844 16187,6917.847,95.437,541.02,538.404,0.0
52359.0,STARLINK-3853,PAYLOAD,2022-07-26 22:00:00,15.08812693,0.0002,53.2191,12.7768,49.7983,273.3179,0.0029824,0.00047462,0.0,0 STARLINK-3853,1 52359U 22045AE  22207.91667824  .00047462  00000-0  29824-2 0  9993,2 52359  53.2191  12.7768 0002000  49.7983 273.3179 15.08812693  1309,6917.964,95.439,541.212,538.445,0.0
52359.0,STARLINK-3853,PAYLOAD,2022-07-27 06:00:02,15.08832715,0.000187,53.2194,11.2785,56.0049,278.8499,-0.00013844,-2.49e-05,0.0,0 STARLINK-3853,1 52359U 22045AE  22208.25002315 -.00002490  00000-0 -13844-3 0  9999,2 52359  53.2194  11.2785 0001870  56.0049 278.8499 15.08832715 16299,6917.903,95.438,541.061,538.474,0.0
52359.0,STARLINK-3853,PAYLOAD,2022-07-27 14:00:01,15.08851654,0.0001950999999999,53.2196,9.7826,56.75,289.6229,-0.0014245999999999,-0.00022897,0.0,0 STARLINK-3853,1 52359U 22045AE  22208.58334491 -.00022897  00000-0 -14246-2 0  9997,2 52359  53.2196   9.7826 0001951  56.7500 289.6229 15.08851654  1308,6917.845,95.437,541.059,538.36,0.0
52359.0,STARLINK-3853,PAYLOAD,2022-07-27 22:00:00,15.08830558,0.0002024,53.2196,8.2875,50.6959,307.276,0.0010970999999999,0.00017211,0.0,0 STARLINK-3853,1 52359U 22045AE  22208.91667824  .00017211  00000-0  10971-2 0  9996,2 52359  53.2196   8.2875 0002024  50.6959 307.2760 15.08830558  1306,6917.909000000002,95.438,541.174,538.374,0.0
52359.0,STARLINK-3853,PAYLOAD,2022-07-28 08:00:01,15.08798299,0.0001803,53.2199,6.415,55.7144,46.7546,0.0029021,0.00046149,0.0,0 STARLINK-3853,1 52359U 22045AE  22209.33334491  .00046149  00000-0  29021-2 0  9992,2 52359  53.2199   6.4150 0001803  55.7144  46.7546 15.08798299 16455,6918.0080000000025,95.44,541.12,538.626,0.0
52359.0,STARLINK-3853,PAYLOAD,2022-07-28 14:00:01,15.08841445,0.0001903,53.2202,5.2938,54.6866,326.4487,-0.0015921,-0.00025538,0.0,0 STARLINK-3853,1 52359U 22045AE  22209.58334491 -.00025538  00000-0 -15921-2 0  9994,2 52359  53.2202   5.2938 0001903  54.6866 326.4487 15.08841445  1303,6917.876,95.437,541.057,538.425,0.0
52359.0,STARLINK-3853,PAYLOAD,2022-07-28 22:00:00,15.08813857,0.0001989,53.2201,3.7985,49.6293,343.0922,0.0024213,0.0003843,0.0,0 STARLINK-3853,1 52359U 22045AE  22209.91667824  .00038430  00000-0  24213-2 0  9997,2 52359  53.2201   3.7985 0001989  49.6293 343.0922 15.08813857  1304,6917.96,95.439,541.201,538.4490000000002,0.0
52359.0,STARLINK-3853,PAYLOAD,2022-07-29 00:00:00,15.08837177,0.0001978,53.2201,3.424,50.3727,75.2369,-0.00030292,-5.106e-05,0.0,0 STARLINK-3853,1 52359U 22045AE  22210.00001157 -.00005106  00000-0 -30292-3 0  9991,2 52359  53.2201   3.4240 0001978  50.3727  75.2369 15.08837177 16557,6917.889,95.438,541.122,538.386,0.0
52359.0,STARLINK-3853,PAYLOAD,2022-07-29 14:00:01,15.08857703,0.0001888,53.2206,0.8052,54.7098,1.1747,-0.002006,-0.00032088,0.0,0 STARLINK-3853,1 52359U 22045AE  22210.58334491 -.00032088  00000-0 -20060-2 0  9994,2 52359  53.2206   0.8052 0001888  54.7098   1.1747 15.08857703  1305,6917.826,95.436,540.997,538.385,0.0
52359.0,STARLINK-3853,PAYLOAD,2022-07-29 22:00:00,15.08829632,0.0001909999999999,53.2204,359.3097,48.6977,18.7893,-0.00073945,-0.00012034,0.0,0 STARLINK-3853,1 52359U 22045AE  22210.91667824 -.00012034  00000-0 -73945-3 0  9990,2 52359  53.2204 359.3097 0001910  48.6977  18.7893 15.08829632  1304,6917.9119999999975,95.438,541.0980000000002,538.456,0.0
52359.0,STARLINK-3853,PAYLOAD,2022-07-30 06:00:00,15.08793847,0.0001672,53.2206,357.8118,54.4979,24.5742,0.0026194,0.00041593,0.0,0 STARLINK-3853,1 52359U 22045AE  22211.25001157  .00041593  00000-0  26194-2 0  9992,2 52359  53.2206 357.8118 0001672  54.4979  24.5742 15.08793847 16745,6918.021,95.44,541.043,538.73,0.0
52359.0,STARLINK-3853,PAYLOAD,2022-07-30 14:00:01,15.0883531,0.0001776999999999,53.2207,356.3167,53.629,36.9964,-0.0018821999999999,-0.00030115,0.0,0 STARLINK-3853,1 52359U 22045AE  22211.58334491 -.00030115  00000-0 -18822-2 0  9997,2 52359  53.2207 356.3167 0001777  53.6290  36.9964 15.08835310  1308,6917.895,95.438,540.989,538.53,0.0
52359.0,STARLINK-3853,PAYLOAD,2022-07-30 22:00:00,15.088146300000002,0.0001844999999999,53.2203,354.8212,48.7677,53.4337,0.0013486,0.00021225,0.0,0 STARLINK-3853,1 52359U 22045AE  22211.91667824  .00021225  00000-0  13486-2 0  9994,2 52359  53.2203 354.8212 0001845  48.7677  53.4337 15.08814630  1308,6917.958000000001,95.439,541.099,538.547,0.0
52359.0,STARLINK-3853,PAYLOAD,2022-07-31 14:00:01,15.08843382,0.0001763,53.2204,351.8284,54.6036,70.747,-0.0017623,-0.00028228,0.0,0 STARLINK-3853,1 52359U 22045AE  22212.58334491 -.00028228  00000-0 -17623-2 0  9998,2 52359  53.2204 351.8284 0001763  54.6036  70.7470 15.08843382  1305,6917.87,95.437,540.955,538.515,0.0
52359.0,STARLINK-3853,PAYLOAD,2022-07-31 22:00:00,15.08827981,0.0001825,53.2199,350.3327,50.2374,86.6974,0.00077345,0.00012039,0.0,0 STARLINK-3853,1 52359U 22045AE  22212.91667824  .00012039  00000-0  77345-3 0  9993,2 52359  53.2199 350.3327 0001825  50.2374  86.6974 15.08827981  1308,6917.917,95.438,541.045,538.52,0.0
52359.0,STARLINK-3853,PAYLOAD,2022-08-01 14:00:01,15.0884959,0.0001781,53.22,347.3401,55.317,104.7929,-0.0015544,-0.00024948,0.0,0 STARLINK-3853,1 52359U 22045AE  22213.58334491 -.00024948  00000-0 -15544-2 0  9994,2 52359  53.2200 347.3401 0001781  55.3170 104.7929 15.08849590  1303,6917.851,95.437,540.948,538.484,0.0
52359.0,STARLINK-3853,PAYLOAD,2022-08-01 22:00:00,15.08843566,0.0001833,53.2196,345.8442,51.1794,120.5247,0.00025828,3.825e-05,0.0,0 STARLINK-3853,1 52359U 22045AE  22213.91667824  .00003825  00000-0  25828-3 0  9996,2 52359  53.2196 345.8442 0001833  51.1794 120.5247 15.08843566  1305,6917.869000000002,95.437,541.003,538.466,0.0
52359.0,STARLINK-3853,PAYLOAD,2022-08-02 06:00:02,15.08827283,0.0001688,53.2195,344.3463,57.7169,125.6581,0.002584,0.00041062,0.0,0 STARLINK-3853,1 52359U 22045AE  22214.25002315  .00041062  00000-0  25840-2 0  9990,2 52359  53.2195 344.3463 0001688  57.7169 125.6581 15.08827283 17196,6917.919,95.438,540.952,538.617,0.0
52359.0,STARLINK-3853,PAYLOAD,2022-08-02 14:00:01,15.08857243,0.0001815,53.2196,342.8515,54.8554,140.0511,-0.0012527999999999,-0.00020181,0.0,0 STARLINK-3853,1 52359U 22045AE  22214.58334491 -.00020181  00000-0 -12528-2 0  9999,2 52359  53.2196 342.8515 0001815  54.8554 140.0511 15.08857243 17245,6917.828,95.436,540.948,538.437,0.0
52359.0,STARLINK-3853,PAYLOAD,2022-08-03 14:00:01,15.08842394,0.0001798,53.2195,338.3627,51.8194,177.8906,-0.0009238999999999,-0.00014963,0.0,0 STARLINK-3853,1 52359U 22045AE  22215.58334491 -.00014963  00000-0 -92390-3 0  9997,2 52359  53.2195 338.3627 0001798  51.8194 177.8906 15.08842394 17398,6917.873000000001,95.437,540.982,538.494,0.0
52359.0,STARLINK-3853,PAYLOAD,2022-08-03 22:00:01,15.08852386,0.0001811999999999,53.2195,336.8664,48.8573,192.5046,-0.00086212,-0.00013987,0.0,0 STARLINK-3853,1 52359U 22045AE  22215.91668981 -.00013987  00000-0 -86212-3 0  9999,2 52359  53.2195 336.8664 0001812  48.8573 192.5046 15.08852386  1301,6917.843000000003,95.437,540.961,538.4540000000002,0.0
52359.0,STARLINK-3853,PAYLOAD,2022-08-04 06:00:00,15.08832882,0.0001681,53.2196,335.3685,54.7032,198.2056,0.0021891,0.00034717,0.0,0 STARLINK-3853,1 52359U 22045AE  22216.25001157  .00034717  00000-0  21891-2 0  9996,2 52359  53.2196 335.3685 0001681  54.7032 198.2056 15.08832882 17499,6917.901999999999,95.438,540.93,538.604,0.0
52359.0,STARLINK-3853,PAYLOAD,2022-08-04 14:00:01,15.08849893,0.0001798,53.2197,333.8738,49.5278,214.9836,-0.0026936,-0.00042914,0.0,0 STARLINK-3853,1 52359U 22045AE  22216.58334491 -.00042914  00000-0 -26936-2 0  9997,2 52359  53.2197 333.8738 0001798  49.5278 214.9836 15.08849893  1300,6917.85,95.437,540.9590000000002,538.471,0.0
52359.0,STARLINK-3853,PAYLOAD,2022-08-04 22:00:00,15.08844091,0.000176,53.2197,332.3773,46.3543,229.7412,-0.0013843,-0.00022254,0.0,0 STARLINK-3853,1 52359U 22045AE  22216.91667824 -.00022254  00000-0 -13843-2 0  9991,2 52359  53.2197 332.3773 0001760  46.3543 229.7412 15.08844091 17599,6917.868,95.437,540.95,538.515,0.0
52359.0,STARLINK-3853,PAYLOAD,2022-08-05 14:00:01,15.08846472,0.0001808,53.22,329.3848,48.3577,250.9879,-0.00054868,-9.011e-05,0.0,0 STARLINK-3853,1 52359U 22045AE  22217.58335648 -.00009011  00000-0 -54868-3 0  9990,2 52359  53.2200 329.3848 0001808  48.3577 250.9879 15.08846472 17694,6917.861,95.437,540.976,538.475,0.0
52359.0,STARLINK-3853,PAYLOAD,2022-08-05 22:00:00,15.08872492,0.0001737,53.2198,327.8882,45.8639,265.0103,-0.0032676,-0.00051963,0.0,0 STARLINK-3853,1 52359U 22045AE  22217.91667824 -.00051963  00000-0 -32676-2 0  9996,2 52359  53.2198 327.8882 0001737  45.8639 265.0103 15.08872492  1302,6917.781,95.435,540.8480000000002,538.444,0.0
